OCO 2                   
1 40059U 14035A   26064.18948089  .00000816  00000+0  19135-3 0  9992
2 40059  98.2195   7.1009 0001172  91.7365 268.3968 14.57088196620901
BRITE-PL2 (HEWELIUSZ)   
1 40119U 14049B   26064.25321353  .00003951  00000+0  37386-3 0  9992
2 40119  97.8983 175.5580 0015577  94.9848 265.3150 14.94153983625922
MMS 1                   
1 40482U 15011A   26064.33335648 -.00001903  00000+0  00000+0 0  9991
2 40482  70.7423 350.2191 8414109 165.2307 145.4857  0.28330875  1332
MMS 2                   
1 40483U 15011B   26064.33335648 -.00001903  00000+0  00000+0 0  9992
2 40483  70.7425 350.2212 8414838 165.2368 145.4692  0.28330881  1339
MMS 3                   
1 40484U 15011C   26064.33335648 -.00001903  00000+0  00000+0 0  9993
2 40484  70.7449 350.2259 8414123 165.2309 145.4778  0.28330849  1338
MMS 4                   
1 40485U 15011D   26064.33335648 -.00001903  00000+0  00000+0 0  9994
2 40485  70.7430 350.2210 8413624 165.2382 145.4635  0.28330846  1331
ASTROSAT                
1 40930U 15052A   26063.94507846  .00002448  00000+0  21712-3 0  9992
2 40930   5.9956 185.5804 0008254 342.4374  17.5469 14.82282501564335
DAMPE                   
1 41173U 15078A   26064.28913109  .00002610  00000+0  90989-4 0  9995
2 41173  97.4576  69.2576 0013904  84.9854 275.2974 15.30480874568652
PISAT                   
1 41784U 16059B   26064.26081778  .00001555  00000+0  27309-3 0  9991
2 41784  97.8190  69.1947 0029190 174.7389 185.4130 14.68760904504484
HXMT (HUIYAN)           
1 42758U 17034A   26064.30160161  .00006961  00000+0  34898-3 0  9993
2 42758  43.0151  41.0670 0032475 209.1306 150.7730 15.17391548481877
FLYING LAPTOP           
1 42831U 17042G   26064.31005988  .00004223  00000+0  33858-3 0  9994
2 42831  97.4258 224.1793 0018726 109.6125 250.7123 15.00481716470870
ZHANGHENG 1-01 (CSES-1) 
1 43194U 18015C   26064.31314044  .00012463  00000+0  56453-3 0  9995
2 43194  97.6747 227.9632 0014770 260.7316  99.2249 15.20919455448853
SALSAT                  
1 46495U 20068K   26064.22035157  .00011798  00000+0  43320-3 0  9997
2 46495  97.8851  61.0911 0008590 315.6003  44.4545 15.28075718299477
IXPE                    
1 49954U 21121A   26064.33335648  .00023154  00000+0  13552-2 0  9993
2 49954   0.2312  22.0401 0007180 305.4460 268.3644 15.09141685  5747
