[{"OBJECT_NAME":"OCO 2","OBJECT_ID":"2014-035A","EPOCH":"2026-03-05T04:32:51.148896","MEAN_MOTION":14.57088196,"ECCENTRICITY":0.00011726,"INCLINATION":98.2195,"RA_OF_ASC_NODE":7.1009,"ARG_OF_PERICENTER":91.7365,"MEAN_ANOMALY":268.3968,"EPHEMERIS_TYPE":0,"CLASSIFICATION_TYPE":"U","NORAD_CAT_ID":40059,"ELEMENT_SET_NO":999,"REV_AT_EPOCH":62090,"BSTAR":0.00019135055,"MEAN_MOTION_DOT":8.16e-6,"MEAN_MOTION_DDOT":0},{"OBJECT_NAME":"BRITE-PL2 (HEWELIUSZ)","OBJECT_ID":"2014-049B","EPOCH":"2026-03-05T06:04:37.648992","MEAN_MOTION":14.94153983,"ECCENTRICITY":0.00155779,"INCLINATION":97.8983,"RA_OF_ASC_NODE":175.558,"ARG_OF_PERICENTER":94.9848,"MEAN_ANOMALY":265.315,"EPHEMERIS_TYPE":0,"CLASSIFICATION_TYPE":"U","NORAD_CAT_ID":40119,"ELEMENT_SET_NO":999,"REV_AT_EPOCH":62592,"BSTAR":0.00037386319,"MEAN_MOTION_DOT":3.951e-5,"MEAN_MOTION_DDOT":0},{"OBJECT_NAME":"MMS 1","OBJECT_ID":"2015-011A","EPOCH":"2026-03-05T08:00:01.999872","MEAN_MOTION":0.28330875,"ECCENTRICITY":0.8414109,"INCLINATION":70.7423,"RA_OF_ASC_NODE":350.2191,"ARG_OF_PERICENTER":165.2307,"MEAN_ANOMALY":145.4857,"EPHEMERIS_TYPE":0,"CLASSIFICATION_TYPE":"U","NORAD_CAT_ID":40482,"ELEMENT_SET_NO":999,"REV_AT_EPOCH":133,"BSTAR":0,"MEAN_MOTION_DOT":-1.903e-5,"MEAN_MOTION_DDOT":0},{"OBJECT_NAME":"MMS 2","OBJECT_ID":"2015-011B","EPOCH":"2026-03-05T08:00:01.999872","MEAN_MOTION":0.28330881,"ECCENTRICITY":0.84148384,"INCLINATION":70.7425,"RA_OF_ASC_NODE":350.2212,"ARG_OF_PERICENTER":165.2368,"MEAN_ANOMALY":145.4692,"EPHEMERIS_TYPE":0,"CLASSIFICATION_TYPE":"U","NORAD_CAT_ID":40483,"ELEMENT_SET_NO":999,"REV_AT_EPOCH":133,"BSTAR":0,"MEAN_MOTION_DOT":-1.903e-5,"MEAN_MOTION_DDOT":0},{"OBJECT_NAME":"MMS 3","OBJECT_ID":"2015-011C","EPOCH":"2026-03-05T08:00:01.999872","MEAN_MOTION":0.28330849,"ECCENTRICITY":0.84141234,"INCLINATION":70.7449,"RA_OF_ASC_NODE":350.2259,"ARG_OF_PERICENTER":165.2309,"MEAN_ANOMALY":145.4778,"EPHEMERIS_TYPE":0,"CLASSIFICATION_TYPE":"U","NORAD_CAT_ID":40484,"ELEMENT_SET_NO":999,"REV_AT_EPOCH":133,"BSTAR":0,"MEAN_MOTION_DOT":-1.903e-5,"MEAN_MOTION_DDOT":0},{"OBJECT_NAME":"MMS 4","OBJECT_ID":"2015-011D","EPOCH":"2026-03-05T08:00:01.999872","MEAN_MOTION":0.28330846,"ECCENTRICITY":0.84136246,"INCLINATION":70.743,"RA_OF_ASC_NODE":350.221,"ARG_OF_PERICENTER":165.2382,"MEAN_ANOMALY":145.4635,"EPHEMERIS_TYPE":0,"CLASSIFICATION_TYPE":"U","NORAD_CAT_ID":40485,"ELEMENT_SET_NO":999,"REV_AT_EPOCH":133,"BSTAR":0,"MEAN_MOTION_DOT":-1.903e-5,"MEAN_MOTION_DDOT":0},{"OBJECT_NAME":"ASTROSAT","OBJECT_ID":"2015-052A","EPOCH":"2026-03-04T22:40:54.778944","MEAN_MOTION":14.82282501,"ECCENTRICITY":0.00082544,"INCLINATION":5.9956,"RA_OF_ASC_NODE":185.5804,"ARG_OF_PERICENTER":342.4374,"MEAN_ANOMALY":17.5469,"EPHEMERIS_TYPE":0,"CLASSIFICATION_TYPE":"U","NORAD_CAT_ID":40930,"ELEMENT_SET_NO":999,"REV_AT_EPOCH":56433,"BSTAR":0.00021711538,"MEAN_MOTION_DOT":2.448e-5,"MEAN_MOTION_DDOT":0},{"OBJECT_NAME":"DAMPE","OBJECT_ID":"2015-078A","EPOCH":"2026-03-05T06:56:20.926176","MEAN_MOTION":15.30480874,"ECCENTRICITY":0.0013904,"INCLINATION":97.4576,"RA_OF_ASC_NODE":69.2576,"ARG_OF_PERICENTER":84.9854,"MEAN_ANOMALY":275.2974,"EPHEMERIS_TYPE":0,"CLASSIFICATION_TYPE":"U","NORAD_CAT_ID":41173,"ELEMENT_SET_NO":999,"REV_AT_EPOCH":56865,"BSTAR":9.0989052e-5,"MEAN_MOTION_DOT":2.61e-5,"MEAN_MOTION_DDOT":0},{"OBJECT_NAME":"PISAT","OBJECT_ID":"2016-059B","EPOCH":"2026-03-05T06:15:34.656192","MEAN_MOTION":14.68760904,"ECCENTRICITY":0.00291902,"INCLINATION":97.819,"RA_OF_ASC_NODE":69.1947,"ARG_OF_PERICENTER":174.7389,"MEAN_ANOMALY":185.413,"EPHEMERIS_TYPE":0,"CLASSIFICATION_TYPE":"U","NORAD_CAT_ID":41784,"ELEMENT_SET_NO":999,"REV_AT_EPOCH":50448,"BSTAR":0.00027309199,"MEAN_MOTION_DOT":1.555e-5,"MEAN_MOTION_DDOT":0},{"OBJECT_NAME":"HXMT (HUIYAN)","OBJECT_ID":"2017-034A","EPOCH":"2026-03-05T07:14:18.379104","MEAN_MOTION":15.17391548,"ECCENTRICITY":0.00324755,"INCLINATION":43.0151,"RA_OF_ASC_NODE":41.067,"ARG_OF_PERICENTER":209.1306,"MEAN_ANOMALY":150.773,"EPHEMERIS_TYPE":0,"CLASSIFICATION_TYPE":"U","NORAD_CAT_ID":42758,"ELEMENT_SET_NO":999,"REV_AT_EPOCH":48187,"BSTAR":0.00034897682,"MEAN_MOTION_DOT":6.961e-5,"MEAN_MOTION_DDOT":0},{"OBJECT_NAME":"FLYING LAPTOP","OBJECT_ID":"2017-042G","EPOCH":"2026-03-05T07:26:29.173632","MEAN_MOTION":15.00481716,"ECCENTRICITY":0.00187264,"INCLINATION":97.4258,"RA_OF_ASC_NODE":224.1793,"ARG_OF_PERICENTER":109.6125,"MEAN_ANOMALY":250.7123,"EPHEMERIS_TYPE":0,"CLASSIFICATION_TYPE":"U","NORAD_CAT_ID":42831,"ELEMENT_SET_NO":999,"REV_AT_EPOCH":47087,"BSTAR":0.0003385778,"MEAN_MOTION_DOT":4.223e-5,"MEAN_MOTION_DDOT":0},{"OBJECT_NAME":"ZHANGHENG 1-01 (CSES-1)","OBJECT_ID":"2018-015C","EPOCH":"2026-03-05T07:30:55.334016","MEAN_MOTION":15.20919455,"ECCENTRICITY":0.001477,"INCLINATION":97.6747,"RA_OF_ASC_NODE":227.9632,"ARG_OF_PERICENTER":260.7316,"MEAN_ANOMALY":99.2249,"EPHEMERIS_TYPE":0,"CLASSIFICATION_TYPE":"U","NORAD_CAT_ID":43194,"ELEMENT_SET_NO":999,"REV_AT_EPOCH":44885,"BSTAR":0.00056453291,"MEAN_MOTION_DOT":0.00012463,"MEAN_MOTION_DDOT":0},{"OBJECT_NAME":"SALSAT","OBJECT_ID":"2020-068K","EPOCH":"2026-03-05T05:17:18.375648","MEAN_MOTION":15.28075718,"ECCENTRICITY":0.00085909,"INCLINATION":97.8851,"RA_OF_ASC_NODE":61.0911,"ARG_OF_PERICENTER":315.6003,"MEAN_ANOMALY":44.4545,"EPHEMERIS_TYPE":0,"CLASSIFICATION_TYPE":"U","NORAD_CAT_ID":46495,"ELEMENT_SET_NO":999,"REV_AT_EPOCH":29947,"BSTAR":0.00043320384,"MEAN_MOTION_DOT":0.00011798,"MEAN_MOTION_DDOT":0},{"OBJECT_NAME":"IXPE","OBJECT_ID":"2021-121A","EPOCH":"2026-03-05T08:00:01.999872","MEAN_MOTION":15.09141685,"ECCENTRICITY":0.00071805,"INCLINATION":0.2312,"RA_OF_ASC_NODE":22.0401,"ARG_OF_PERICENTER":305.446,"MEAN_ANOMALY":268.3644,"EPHEMERIS_TYPE":0,"CLASSIFICATION_TYPE":"U","NORAD_CAT_ID":49954,"ELEMENT_SET_NO":999,"REV_AT_EPOCH":574,"BSTAR":0.0013552112,"MEAN_MOTION_DOT":0.00023154,"MEAN_MOTION_DDOT":0}]
